TIANMU-1 10             
1 57402U 23101D   26062.87739932  .00010752  00000+0  38143-3 0  9995
2 57402  97.2761 116.1497 0006914 149.3063 210.8583 15.29219467145549
FENGYUN 3F              
1 57490U 23111A   26062.83928223  .00000104  00000+0  69634-4 0  9992
2 57490  98.6940 134.7724 0001335  82.3964 277.7364 14.19917875133910
ARKTIKA-M 2             
1 58584U 23198A   26062.08261615  .00000137  00000+0  00000+0 0  9997
2 58584  63.2203 166.1216 6876963 267.7841  18.8417  2.00614888 16194
TIANMU-1 11             
1 58645U 23205A   26062.83831657  .00008189  00000+0  32289-3 0  9999
2 58645  97.3545  86.0841 0009692  28.0553 332.1206 15.25783484121456
TIANMU-1 12             
1 58646U 23205B   26062.87045253  .00009318  00000+0  36799-3 0  9998
2 58646  97.3534  85.8960 0007477  14.7199 345.4255 15.25707519121446
TIANMU-1 13             
1 58647U 23205C   26062.83595486  .00008615  00000+0  34001-3 0  9996
2 58647  97.3562  86.0984 0007108 355.9078   4.2101 15.25755537121436
TIANMU-1 14             
1 58648U 23205D   26062.88602079  .00009151  00000+0  36114-3 0  9992
2 58648  97.3496  85.4217 0008020 358.8517   1.2702 15.25734130121440
TIANMU-1 19             
1 58660U 23208A   26062.84283178  .00013401  00000+0  46817-3 0  9994
2 58660  97.4388 178.8248 0004325 342.3499  17.7590 15.29683343121212
TIANMU-1 20             
1 58661U 23208B   26062.83168470  .00013192  00000+0  44424-3 0  9990
2 58661  97.4327 179.3414 0006638 348.1670  11.9414 15.30872386121299
TIANMU-1 21             
1 58662U 23208C   26062.83783877  .00015231  00000+0  48172-3 0  9995
2 58662  97.4381 181.5999 0006392 341.4846  18.6163 15.32859184121413
TIANMU-1 22             
1 58663U 23208D   26062.85902713  .00012690  00000+0  44864-3 0  9990
2 58663  97.4383 178.8558 0003610  14.6879 345.4465 15.29310703121221
TIANMU-1 15             
1 58700U 24004A   26062.81819272  .00008569  00000+0  33856-3 0  9999
2 58700  97.4660 249.0648 0007161  10.6000 349.5388 15.25727560119707
TIANMU-1 16             
1 58701U 24004B   26062.86739056  .00009910  00000+0  39071-3 0  9992
2 58701  97.4602 248.4414 0005705  16.2442 343.8978 15.25762873119711
TIANMU-1 17             
1 58702U 24004C   26062.84985973  .00009392  00000+0  37012-3 0  9999
2 58702  97.4634 248.8747 0004930  19.5479 340.5947 15.25798679119707
TIANMU-1 18             
1 58703U 24004D   26062.83483044  .00008933  00000+0  35271-3 0  9996
2 58703  97.4651 249.0703 0004338  20.9119 339.2296 15.25749439119703
INSAT-3DS               
1 58990U 24033A   26062.72464647 -.00000169  00000+0  00000+0 0  9994
2 58990   0.0575 264.6229 0002317  92.0776 147.7153  1.00270332 46012
METEOR-M2 4             
1 59051U 24039A   26062.88103704  .00000054  00000+0  43639-4 0  9992
2 59051  98.6896  23.5710 0008066 110.9321 249.2720 14.22416090104294
