[{"OBJECT_NAME":"TIANMU-1 10","OBJECT_ID":"2023-101D","EPOCH":"2026-03-03T21:03:27.301248","MEAN_MOTION":15.29219467,"ECCENTRICITY":0.0006914,"INCLINATION":97.2761,"RA_OF_ASC_NODE":116.1497,"ARG_OF_PERICENTER":149.3063,"MEAN_ANOMALY":210.8583,"EPHEMERIS_TYPE":0,"CLASSIFICATION_TYPE":"U","NORAD_CAT_ID":57402,"ELEMENT_SET_NO":999,"REV_AT_EPOCH":14554,"BSTAR":0.00038143,"MEAN_MOTION_DOT":0.00010752,"MEAN_MOTION_DDOT":0},{"OBJECT_NAME":"FENGYUN 3F","OBJECT_ID":"2023-111A","EPOCH":"2026-03-03T20:08:33.984672","MEAN_MOTION":14.19917875,"ECCENTRICITY":0.0001335,"INCLINATION":98.694,"RA_OF_ASC_NODE":134.7724,"ARG_OF_PERICENTER":82.3964,"MEAN_ANOMALY":277.7364,"EPHEMERIS_TYPE":0,"CLASSIFICATION_TYPE":"U","NORAD_CAT_ID":57490,"ELEMENT_SET_NO":999,"REV_AT_EPOCH":13391,"BSTAR":6.9634e-5,"MEAN_MOTION_DOT":1.04e-6,"MEAN_MOTION_DDOT":0},{"OBJECT_NAME":"ARKTIKA-M 2","OBJECT_ID":"2023-198A","EPOCH":"2026-03-03T01:58:58.035360","MEAN_MOTION":2.00614888,"ECCENTRICITY":0.68769635,"INCLINATION":63.2203,"RA_OF_ASC_NODE":166.1216,"ARG_OF_PERICENTER":267.7841,"MEAN_ANOMALY":18.8417,"EPHEMERIS_TYPE":0,"CLASSIFICATION_TYPE":"U","NORAD_CAT_ID":58584,"ELEMENT_SET_NO":999,"REV_AT_EPOCH":1619,"BSTAR":0,"MEAN_MOTION_DOT":1.37e-6,"MEAN_MOTION_DDOT":0},{"OBJECT_NAME":"TIANMU-1 11","OBJECT_ID":"2023-205A","EPOCH":"2026-03-03T20:07:10.551648","MEAN_MOTION":15.25783484,"ECCENTRICITY":0.0009692,"INCLINATION":97.3545,"RA_OF_ASC_NODE":86.0841,"ARG_OF_PERICENTER":28.0553,"MEAN_ANOMALY":332.1206,"EPHEMERIS_TYPE":0,"CLASSIFICATION_TYPE":"U","NORAD_CAT_ID":58645,"ELEMENT_SET_NO":999,"REV_AT_EPOCH":12145,"BSTAR":0.00032289,"MEAN_MOTION_DOT":8.189e-5,"MEAN_MOTION_DDOT":0},{"OBJECT_NAME":"TIANMU-1 12","OBJECT_ID":"2023-205B","EPOCH":"2026-03-03T20:53:27.098592","MEAN_MOTION":15.25707519,"ECCENTRICITY":0.0007477,"INCLINATION":97.3534,"RA_OF_ASC_NODE":85.896,"ARG_OF_PERICENTER":14.7199,"MEAN_ANOMALY":345.4255,"EPHEMERIS_TYPE":0,"CLASSIFICATION_TYPE":"U","NORAD_CAT_ID":58646,"ELEMENT_SET_NO":999,"REV_AT_EPOCH":12144,"BSTAR":0.00036799,"MEAN_MOTION_DOT":9.318e-5,"MEAN_MOTION_DDOT":0},{"OBJECT_NAME":"TIANMU-1 13","OBJECT_ID":"2023-205C","EPOCH":"2026-03-03T20:03:46.499904","MEAN_MOTION":15.25755537,"ECCENTRICITY":0.0007108,"INCLINATION":97.3562,"RA_OF_ASC_NODE":86.0984,"ARG_OF_PERICENTER":355.9078,"MEAN_ANOMALY":4.2101,"EPHEMERIS_TYPE":0,"CLASSIFICATION_TYPE":"U","NORAD_CAT_ID":58647,"ELEMENT_SET_NO":999,"REV_AT_EPOCH":12143,"BSTAR":0.00034001,"MEAN_MOTION_DOT":8.615e-5,"MEAN_MOTION_DDOT":0},{"OBJECT_NAME":"TIANMU-1 14","OBJECT_ID":"2023-205D","EPOCH":"2026-03-03T21:15:52.196256","MEAN_MOTION":15.2573413,"ECCENTRICITY":0.000802,"INCLINATION":97.3496,"RA_OF_ASC_NODE":85.4217,"ARG_OF_PERICENTER":358.8517,"MEAN_ANOMALY":1.2702,"EPHEMERIS_TYPE":0,"CLASSIFICATION_TYPE":"U","NORAD_CAT_ID":58648,"ELEMENT_SET_NO":999,"REV_AT_EPOCH":12144,"BSTAR":0.00036114,"MEAN_MOTION_DOT":9.151e-5,"MEAN_MOTION_DDOT":0},{"OBJECT_NAME":"TIANMU-1 19","OBJECT_ID":"2023-208A","EPOCH":"2026-03-03T20:13:40.665792","MEAN_MOTION":15.29683343,"ECCENTRICITY":0.0004325,"INCLINATION":97.4388,"RA_OF_ASC_NODE":178.8248,"ARG_OF_PERICENTER":342.3499,"MEAN_ANOMALY":17.759,"EPHEMERIS_TYPE":0,"CLASSIFICATION_TYPE":"U","NORAD_CAT_ID":58660,"ELEMENT_SET_NO":999,"REV_AT_EPOCH":12121,"BSTAR":0.00046817,"MEAN_MOTION_DOT":0.00013401,"MEAN_MOTION_DDOT":0},{"OBJECT_NAME":"TIANMU-1 20","OBJECT_ID":"2023-208B","EPOCH":"2026-03-03T19:57:37.558080","MEAN_MOTION":15.30872386,"ECCENTRICITY":0.0006638,"INCLINATION":97.4327,"RA_OF_ASC_NODE":179.3414,"ARG_OF_PERICENTER":348.167,"MEAN_ANOMALY":11.9414,"EPHEMERIS_TYPE":0,"CLASSIFICATION_TYPE":"U","NORAD_CAT_ID":58661,"ELEMENT_SET_NO":999,"REV_AT_EPOCH":12129,"BSTAR":0.00044424,"MEAN_MOTION_DOT":0.00013192,"MEAN_MOTION_DDOT":0},{"OBJECT_NAME":"TIANMU-1 21","OBJECT_ID":"2023-208C","EPOCH":"2026-03-03T20:06:29.269728","MEAN_MOTION":15.32859184,"ECCENTRICITY":0.0006392,"INCLINATION":97.4381,"RA_OF_ASC_NODE":181.5999,"ARG_OF_PERICENTER":341.4846,"MEAN_ANOMALY":18.6163,"EPHEMERIS_TYPE":0,"CLASSIFICATION_TYPE":"U","NORAD_CAT_ID":58662,"ELEMENT_SET_NO":999,"REV_AT_EPOCH":12141,"BSTAR":0.00048172,"MEAN_MOTION_DOT":0.00015231,"MEAN_MOTION_DDOT":0},{"OBJECT_NAME":"TIANMU-1 22","OBJECT_ID":"2023-208D","EPOCH":"2026-03-03T20:36:59.944032","MEAN_MOTION":15.29310703,"ECCENTRICITY":0.000361,"INCLINATION":97.4383,"RA_OF_ASC_NODE":178.8558,"ARG_OF_PERICENTER":14.6879,"MEAN_ANOMALY":345.4465,"EPHEMERIS_TYPE":0,"CLASSIFICATION_TYPE":"U","NORAD_CAT_ID":58663,"ELEMENT_SET_NO":999,"REV_AT_EPOCH":12122,"BSTAR":0.00044864,"MEAN_MOTION_DOT":0.0001269,"MEAN_MOTION_DDOT":0},{"OBJECT_NAME":"TIANMU-1 15","OBJECT_ID":"2024-004A","EPOCH":"2026-03-03T19:38:11.851008","MEAN_MOTION":15.2572756,"ECCENTRICITY":0.0007161,"INCLINATION":97.466,"RA_OF_ASC_NODE":249.0648,"ARG_OF_PERICENTER":10.6,"MEAN_ANOMALY":349.5388,"EPHEMERIS_TYPE":0,"CLASSIFICATION_TYPE":"U","NORAD_CAT_ID":58700,"ELEMENT_SET_NO":999,"REV_AT_EPOCH":11970,"BSTAR":0.00033856,"MEAN_MOTION_DOT":8.569e-5,"MEAN_MOTION_DDOT":0},{"OBJECT_NAME":"TIANMU-1 16","OBJECT_ID":"2024-004B","EPOCH":"2026-03-03T20:49:02.544384","MEAN_MOTION":15.25762873,"ECCENTRICITY":0.0005705,"INCLINATION":97.4602,"RA_OF_ASC_NODE":248.4414,"ARG_OF_PERICENTER":16.2442,"MEAN_ANOMALY":343.8978,"EPHEMERIS_TYPE":0,"CLASSIFICATION_TYPE":"U","NORAD_CAT_ID":58701,"ELEMENT_SET_NO":999,"REV_AT_EPOCH":11971,"BSTAR":0.00039071,"MEAN_MOTION_DOT":9.91e-5,"MEAN_MOTION_DDOT":0},{"OBJECT_NAME":"TIANMU-1 17","OBJECT_ID":"2024-004C","EPOCH":"2026-03-03T20:23:47.880672","MEAN_MOTION":15.25798679,"ECCENTRICITY":0.000493,"INCLINATION":97.4634,"RA_OF_ASC_NODE":248.8747,"ARG_OF_PERICENTER":19.5479,"MEAN_ANOMALY":340.5947,"EPHEMERIS_TYPE":0,"CLASSIFICATION_TYPE":"U","NORAD_CAT_ID":58702,"ELEMENT_SET_NO":999,"REV_AT_EPOCH":11970,"BSTAR":0.00037012,"MEAN_MOTION_DOT":9.392e-5,"MEAN_MOTION_DDOT":0},{"OBJECT_NAME":"TIANMU-1 18","OBJECT_ID":"2024-004D","EPOCH":"2026-03-03T20:02:09.350016","MEAN_MOTION":15.25749439,"ECCENTRICITY":0.0004338,"INCLINATION":97.4651,"RA_OF_ASC_NODE":249.0703,"ARG_OF_PERICENTER":20.9119,"MEAN_ANOMALY":339.2296,"EPHEMERIS_TYPE":0,"CLASSIFICATION_TYPE":"U","NORAD_CAT_ID":58703,"ELEMENT_SET_NO":999,"REV_AT_EPOCH":11970,"BSTAR":0.00035271,"MEAN_MOTION_DOT":8.933e-5,"MEAN_MOTION_DDOT":0},{"OBJECT_NAME":"INSAT-3DS","OBJECT_ID":"2024-033A","EPOCH":"2026-03-03T17:23:29.455008","MEAN_MOTION":1.00270332,"ECCENTRICITY":0.0002317,"INCLINATION":0.0575,"RA_OF_ASC_NODE":264.6229,"ARG_OF_PERICENTER":92.0776,"MEAN_ANOMALY":147.7153,"EPHEMERIS_TYPE":0,"CLASSIFICATION_TYPE":"U","NORAD_CAT_ID":58990,"ELEMENT_SET_NO":999,"REV_AT_EPOCH":4601,"BSTAR":0,"MEAN_MOTION_DOT":-1.69e-6,"MEAN_MOTION_DDOT":0},{"OBJECT_NAME":"METEOR-M2 4","OBJECT_ID":"2024-039A","EPOCH":"2026-03-03T21:08:41.600256","MEAN_MOTION":14.2241609,"ECCENTRICITY":0.0008066,"INCLINATION":98.6896,"RA_OF_ASC_NODE":23.571,"ARG_OF_PERICENTER":110.9321,"MEAN_ANOMALY":249.272,"EPHEMERIS_TYPE":0,"CLASSIFICATION_TYPE":"U","NORAD_CAT_ID":59051,"ELEMENT_SET_NO":999,"REV_AT_EPOCH":10429,"BSTAR":4.3639e-5,"MEAN_MOTION_DOT":5.4e-7,"MEAN_MOTION_DDOT":0}]
